STARLINK-32544          
1 61917U 24207F   26068.95142514  .00041280  00000+0  15001-2 0  9995
2 61917  43.0027 280.1290 0001227 305.5012  54.5725 15.27604471 74761
KUIPER-00226            
1 67785U 26030X   26068.62629313  .00046834  00000+0  15530-2 0  9998
2 67785  51.8814 220.1252 0017713  64.2781 296.0030 15.30655594  5078
